[{"OBJECT_NAME":"STARLINK-36799","OBJECT_ID":"2026-037AC","EPOCH":"2026-03-05T04:00:01.999584","MEAN_MOTION":15.96484626,"ECCENTRICITY":0.0001817,"INCLINATION":43.0001,"RA_OF_ASC_NODE":226.3197,"ARG_OF_PERICENTER":276.8277,"MEAN_ANOMALY":113.3044,"EPHEMERIS_TYPE":0,"CLASSIFICATION_TYPE":"U","NORAD_CAT_ID":67958,"ELEMENT_SET_NO":999,"REV_AT_EPOCH":247,"BSTAR":-0.0035962,"MEAN_MOTION_DOT":-0.01566243,"MEAN_MOTION_DDOT":0.00071845},{"OBJECT_NAME":"STARLINK-36834","OBJECT_ID":"2026-037AD","EPOCH":"2026-03-05T04:00:01.999584","MEAN_MOTION":15.96737274,"ECCENTRICITY":0.0001557,"INCLINATION":43.0002,"RA_OF_ASC_NODE":226.306,"ARG_OF_PERICENTER":274.9807,"MEAN_ANOMALY":120.386,"EPHEMERIS_TYPE":0,"CLASSIFICATION_TYPE":"U","NORAD_CAT_ID":67959,"ELEMENT_SET_NO":999,"REV_AT_EPOCH":247,"BSTAR":-0.0035661,"MEAN_MOTION_DOT":-0.01574686,"MEAN_MOTION_DDOT":0.0007275},{"OBJECT_NAME":"STARLINK-36841","OBJECT_ID":"2026-037AE","EPOCH":"2026-03-05T04:00:01.999584","MEAN_MOTION":15.96615686,"ECCENTRICITY":0.0001738,"INCLINATION":43.0001,"RA_OF_ASC_NODE":226.313,"ARG_OF_PERICENTER":270.3549,"MEAN_ANOMALY":122.2502,"EPHEMERIS_TYPE":0,"CLASSIFICATION_TYPE":"U","NORAD_CAT_ID":67960,"ELEMENT_SET_NO":999,"REV_AT_EPOCH":247,"BSTAR":-0.0036011,"MEAN_MOTION_DOT":-0.01579534,"MEAN_MOTION_DDOT":0.00073071},{"OBJECT_NAME":"STARLINK-36912","OBJECT_ID":"2026-038A","EPOCH":"2026-03-05T04:00:01.999584","MEAN_MOTION":16.01669029,"ECCENTRICITY":9.8e-5,"INCLINATION":97.2766,"RA_OF_ASC_NODE":74.0832,"ARG_OF_PERICENTER":72.1578,"MEAN_ANOMALY":290.6489,"EPHEMERIS_TYPE":0,"CLASSIFICATION_TYPE":"U","NORAD_CAT_ID":67961,"ELEMENT_SET_NO":999,"REV_AT_EPOCH":247,"BSTAR":-0.0028176,"MEAN_MOTION_DOT":-0.01558475,"MEAN_MOTION_DDOT":0.00075983},{"OBJECT_NAME":"STARLINK-36881","OBJECT_ID":"2026-038B","EPOCH":"2026-03-05T04:00:01.999584","MEAN_MOTION":16.01725222,"ECCENTRICITY":8.25e-5,"INCLINATION":97.2764,"RA_OF_ASC_NODE":74.0837,"ARG_OF_PERICENTER":79.3967,"MEAN_ANOMALY":285.1262,"EPHEMERIS_TYPE":0,"CLASSIFICATION_TYPE":"U","NORAD_CAT_ID":67962,"ELEMENT_SET_NO":999,"REV_AT_EPOCH":247,"BSTAR":-0.0027502,"MEAN_MOTION_DOT":-0.01526478,"MEAN_MOTION_DDOT":0.00073153},{"OBJECT_NAME":"STARLINK-36357","OBJECT_ID":"2026-038C","EPOCH":"2026-03-05T04:00:01.999584","MEAN_MOTION":16.01970672,"ECCENTRICITY":8.85e-5,"INCLINATION":97.2762,"RA_OF_ASC_NODE":74.0857,"ARG_OF_PERICENTER":77.7621,"MEAN_ANOMALY":291.2185,"EPHEMERIS_TYPE":0,"CLASSIFICATION_TYPE":"U","NORAD_CAT_ID":67963,"ELEMENT_SET_NO":999,"REV_AT_EPOCH":247,"BSTAR":-0.0027274,"MEAN_MOTION_DOT":-0.01535373,"MEAN_MOTION_DDOT":0.00074159},{"OBJECT_NAME":"STARLINK-36349","OBJECT_ID":"2026-038D","EPOCH":"2026-03-05T04:00:01.999584","MEAN_MOTION":16.01867182,"ECCENTRICITY":9.23e-5,"INCLINATION":97.276,"RA_OF_ASC_NODE":74.0844,"ARG_OF_PERICENTER":87.6763,"MEAN_ANOMALY":279.0601,"EPHEMERIS_TYPE":0,"CLASSIFICATION_TYPE":"U","NORAD_CAT_ID":67964,"ELEMENT_SET_NO":999,"REV_AT_EPOCH":247,"BSTAR":-0.0027778,"MEAN_MOTION_DOT":-0.01554162,"MEAN_MOTION_DDOT":0.00075766},{"OBJECT_NAME":"STARLINK-36806","OBJECT_ID":"2026-038E","EPOCH":"2026-03-05T04:00:01.999584","MEAN_MOTION":16.02112164,"ECCENTRICITY":0.0001014,"INCLINATION":97.2757,"RA_OF_ASC_NODE":74.0868,"ARG_OF_PERICENTER":58.1412,"MEAN_ANOMALY":313.4164,"EPHEMERIS_TYPE":0,"CLASSIFICATION_TYPE":"U","NORAD_CAT_ID":67965,"ELEMENT_SET_NO":999,"REV_AT_EPOCH":247,"BSTAR":-0.0027178,"MEAN_MOTION_DOT":-0.01542528,"MEAN_MOTION_DDOT":0.00074927},{"OBJECT_NAME":"STARLINK-36820","OBJECT_ID":"2026-038F","EPOCH":"2026-03-05T04:00:01.999584","MEAN_MOTION":16.02211521,"ECCENTRICITY":9.15e-5,"INCLINATION":97.2757,"RA_OF_ASC_NODE":74.0878,"ARG_OF_PERICENTER":84.6255,"MEAN_ANOMALY":289.1112,"EPHEMERIS_TYPE":0,"CLASSIFICATION_TYPE":"U","NORAD_CAT_ID":67966,"ELEMENT_SET_NO":999,"REV_AT_EPOCH":247,"BSTAR":-0.0026583,"MEAN_MOTION_DOT":-0.01517735,"MEAN_MOTION_DDOT":0.00072786},{"OBJECT_NAME":"STARLINK-36819","OBJECT_ID":"2026-038G","EPOCH":"2026-03-05T04:00:01.999584","MEAN_MOTION":16.02336197,"ECCENTRICITY":0.0001089,"INCLINATION":97.2757,"RA_OF_ASC_NODE":74.0888,"ARG_OF_PERICENTER":64.8211,"MEAN_ANOMALY":311.2636,"EPHEMERIS_TYPE":0,"CLASSIFICATION_TYPE":"U","NORAD_CAT_ID":67967,"ELEMENT_SET_NO":999,"REV_AT_EPOCH":247,"BSTAR":-0.0026791,"MEAN_MOTION_DOT":-0.01540528,"MEAN_MOTION_DDOT":0.00074942},{"OBJECT_NAME":"STARLINK-36812","OBJECT_ID":"2026-038H","EPOCH":"2026-03-05T04:00:01.999584","MEAN_MOTION":16.02451438,"ECCENTRICITY":0.0001129,"INCLINATION":97.2753,"RA_OF_ASC_NODE":74.0893,"ARG_OF_PERICENTER":58.4651,"MEAN_ANOMALY":319.6249,"EPHEMERIS_TYPE":0,"CLASSIFICATION_TYPE":"U","NORAD_CAT_ID":67968,"ELEMENT_SET_NO":999,"REV_AT_EPOCH":247,"BSTAR":-0.0026824,"MEAN_MOTION_DOT":-0.01552653,"MEAN_MOTION_DDOT":0.00076148},{"OBJECT_NAME":"STARLINK-36709","OBJECT_ID":"2026-038J","EPOCH":"2026-03-05T04:00:01.999584","MEAN_MOTION":16.02687917,"ECCENTRICITY":8.77e-5,"INCLINATION":97.2753,"RA_OF_ASC_NODE":74.0915,"ARG_OF_PERICENTER":79.2812,"MEAN_ANOMALY":303.5841,"EPHEMERIS_TYPE":0,"CLASSIFICATION_TYPE":"U","NORAD_CAT_ID":67969,"ELEMENT_SET_NO":999,"REV_AT_EPOCH":247,"BSTAR":-0.0026013,"MEAN_MOTION_DOT":-0.01526883,"MEAN_MOTION_DDOT":0.00074016},{"OBJECT_NAME":"STARLINK-36319","OBJECT_ID":"2026-038K","EPOCH":"2026-03-05T04:00:01.999584","MEAN_MOTION":16.02562977,"ECCENTRICITY":0.0001046,"INCLINATION":97.2753,"RA_OF_ASC_NODE":74.0903,"ARG_OF_PERICENTER":58.88,"MEAN_ANOMALY":321.5778,"EPHEMERIS_TYPE":0,"CLASSIFICATION_TYPE":"U","NORAD_CAT_ID":67970,"ELEMENT_SET_NO":999,"REV_AT_EPOCH":244,"BSTAR":-0.002615,"MEAN_MOTION_DOT":-0.01523826,"MEAN_MOTION_DDOT":0.00073633},{"OBJECT_NAME":"STARLINK-36710","OBJECT_ID":"2026-038L","EPOCH":"2026-03-05T04:00:01.999584","MEAN_MOTION":16.02842112,"ECCENTRICITY":9.11e-5,"INCLINATION":97.275,"RA_OF_ASC_NODE":74.0928,"ARG_OF_PERICENTER":70.7015,"MEAN_ANOMALY":315.0601,"EPHEMERIS_TYPE":0,"CLASSIFICATION_TYPE":"U","NORAD_CAT_ID":67971,"ELEMENT_SET_NO":999,"REV_AT_EPOCH":247,"BSTAR":-0.0025614,"MEAN_MOTION_DOT":-0.01517256,"MEAN_MOTION_DDOT":0.00073283},{"OBJECT_NAME":"STARLINK-36894","OBJECT_ID":"2026-038M","EPOCH":"2026-03-05T04:00:01.999584","MEAN_MOTION":16.02959694,"ECCENTRICITY":0.0001079,"INCLINATION":97.2747,"RA_OF_ASC_NODE":74.0937,"ARG_OF_PERICENTER":51.4842,"MEAN_ANOMALY":336.6838,"EPHEMERIS_TYPE":0,"CLASSIFICATION_TYPE":"U","NORAD_CAT_ID":67972,"ELEMENT_SET_NO":999,"REV_AT_EPOCH":247,"BSTAR":-0.0025218,"MEAN_MOTION_DOT":-0.01504277,"MEAN_MOTION_DDOT":0.00072221},{"OBJECT_NAME":"STARLINK-36900","OBJECT_ID":"2026-038N","EPOCH":"2026-03-05T04:00:01.999584","MEAN_MOTION":16.03203416,"ECCENTRICITY":8.78e-5,"INCLINATION":97.2746,"RA_OF_ASC_NODE":74.0957,"ARG_OF_PERICENTER":76.0023,"MEAN_ANOMALY":316.9714,"EPHEMERIS_TYPE":0,"CLASSIFICATION_TYPE":"U","NORAD_CAT_ID":67973,"ELEMENT_SET_NO":999,"REV_AT_EPOCH":247,"BSTAR":-0.0024885,"MEAN_MOTION_DOT":-0.01505761,"MEAN_MOTION_DDOT":0.00072562}]
